#dV2023  2 18 10  0  0.00000000    1682       CTS   FIT  GFZ
## 2249 554400.00000000    30.00000000 59993 0.4166666666667
+    1   L65  0  0  0  0  0  0  0  0  0  0  0  0  0  0  0  0
+          0  0  0  0  0  0  0  0  0  0  0  0  0  0  0  0  0
+          0  0  0  0  0  0  0  0  0  0  0  0  0  0  0  0  0
+          0  0  0  0  0  0  0  0  0  0  0  0  0  0  0  0  0
+          0  0  0  0  0  0  0  0  0  0  0  0  0  0  0  0  0
++         0  0  0  0  0  0  0  0  0  0  0  0  0  0  0  0  0
++         0  0  0  0  0  0  0  0  0  0  0  0  0  0  0  0  0
++         0  0  0  0  0  0  0  0  0  0  0  0  0  0  0  0  0
++         0  0  0  0  0  0  0  0  0  0  0  0  0  0  0  0  0
++         0  0  0  0  0  0  0  0  0  0  0  0  0  0  0  0  0
%c L  cc GPS ccc cccc cccc cccc cccc ccccc ccccc ccccc ccccc
%c cc cc ccc ccc cccc cccc cccc cccc ccccc ccccc ccccc ccccc
%f  0.0000000  0.000000000  0.00000000000  0.000000000000000
%f  0.0000000  0.000000000  0.00000000000  0.000000000000000
%i    0    0    0    0      0      0      0      0         0
%i    0    0    0    0      0      0      0      0         0
/* CCCCCCCCCCCCCCCCCCCCCCCCCCCCCCCCCCCCCCCCCCCCCCCCCCCCCCCCCCCCCCCCCCCCCCCCCCCCC
/* C                             GFZ RSO-ORBIT                                 C
/* C DOI: https://doi.org/10.5880/GFZ_ORBIT/RSO/L65_G_v02                      C
/* C                                                                           C
/* C DORIS        RMS: not applicable                                          C
/* C GNSS-E Code  RMS: not applicable                                          C
/* C GNSS-E Phase RMS: not applicable                                          C
/* C GNSS-G Code  RMS:  60.002 [cm]   Obs.acc.:     14798 Obs.eli.:       962  C
/* C GNSS-G Phase RMS:   4.590 [mm]   Obs.acc.:     14798 Obs.eli.:       962  C
/* C SLR          RMS:   1.739 [cm]   Obs.acc.:        29 Obs.eli.:         0  C
/* C                                                                           C
/* CCCCCCCCCCCCCCCCCCCCCCCCCCCCCCCCCCCCCCCCCCCCCCCCCCCCCCCCCCCCCCCCCCCCCCCCCCCCC
*  2023  2 18 15 31 30.00000000
PL65   2129.169357   -489.984590   6496.984550   1687.040764
VL65 -69809.481993  18738.592813  24133.093010 999999.999999
*  2023  2 18 15 32  0.00000000
PL65   1918.728587   -433.049190   6565.759593   1687.510678
VL65 -70471.118279  19215.333358  21712.666131 999999.999999
*  2023  2 18 15 32 30.00000000
PL65   1706.422439   -374.711067   6627.236276   1687.980692
VL65 -71052.966102  19673.597107  19267.968961 999999.999999
*  2023  2 18 15 33  0.00000000
PL65   1492.491146   -315.026942   6681.345844   1688.450685
VL65 -71554.461733  20112.526337  16801.710110 999999.999999
*  2023  2 18 15 33 30.00000000
PL65   1277.176495   -254.056083   6728.027703   1688.920776
VL65 -71975.134253  20531.281690  14316.618707 999999.999999
*  2023  2 18 15 34  0.00000000
PL65   1060.721548   -191.860247   6767.229471   1689.390984
VL65 -72314.602407  20929.042841  11815.442254 999999.999999
*  2023  2 18 15 34 30.00000000
PL65    843.370379   -128.503620   6798.907038   1689.861136
VL65 -72572.574512  21305.010873   9300.948031 999999.999999
*  2023  2 18 15 35  0.00000000
PL65    625.367799    -64.052751   6823.024625   1690.331282
VL65 -72748.851897  21658.410467   6775.920734 999999.999999
*  2023  2 18 15 35 30.00000000
PL65    406.959071      1.423522   6839.554826   1690.801158
VL65 -72843.329686  21988.490547   4243.156982 999999.999999
*  2023  2 18 15 36  0.00000000
PL65    188.389635     67.854146   6848.478636   1691.271052
VL65 -72855.995597  22294.524853   1705.461630 999999.999999
*  2023  2 18 15 36 30.00000000
PL65    -30.095168    135.165925   6849.785475   1691.740849
VL65 -72786.929488  22575.813330   -834.354620 999999.999999
*  2023  2 18 15 37  0.00000000
PL65   -248.250379    203.283606   6843.473201   1692.210674
VL65 -72636.303512  22831.683602  -3373.478089 999999.999999
*  2023  2 18 15 37 30.00000000
PL65   -465.831690    272.129963   6829.548113   1692.680487
VL65 -72404.381544  23061.491935  -5909.095189 999999.999999
*  2023  2 18 15 38  0.00000000
PL65   -682.595724    341.625881   6808.024947   1693.150853
VL65 -72091.518869  23264.624387  -8438.394685 999999.999999
*  2023  2 18 15 38 30.00000000
PL65   -898.300306    411.690450   6778.926868   1693.621019
VL65 -71698.162533  23440.498163 -10958.571051 999999.999999
*  2023  2 18 15 39  0.00000000
PL65  -1112.704740    482.241059   6742.285440   1694.091106
VL65 -71224.850033  23588.562297 -13466.828739 999999.999999
*  2023  2 18 15 39 30.00000000
PL65  -1325.570073    553.193494   6698.140599   1694.561434
VL65 -70672.207150  23708.298026 -15960.383748 999999.999999
*  2023  2 18 15 40  0.00000000
PL65  -1536.659364    624.462033   6646.540613   1695.031790
VL65 -70040.948675  23799.220301 -18436.464271 999999.999999
*  2023  2 18 15 40 30.00000000
PL65  -1745.737952    695.959552   6587.542043   1695.502171
VL65 -69331.879876  23860.879764 -20892.315111 999999.999999
*  2023  2 18 15 41  0.00000000
PL65  -1952.573724    767.597634   6521.209686   1695.972122
VL65 -68545.894496  23892.863431 -23325.203142 999999.999999
*  2023  2 18 15 41 30.00000000
PL65  -2156.937379    839.286679   6447.616497   1696.441942
VL65 -67683.971963  23894.794930 -25732.419682 999999.999999
*  2023  2 18 15 42  0.00000000
PL65  -2358.602680    910.936011   6366.843523   1696.911755
VL65 -66747.176327  23866.335236 -28111.281913 999999.999999
*  2023  2 18 15 42 30.00000000
PL65  -2557.346709    982.453997   6278.979815   1697.381660
VL65 -65736.655873  23807.183822 -30459.135176 999999.999999
*  2023  2 18 15 43  0.00000000
PL65  -2752.950120   1053.748160   6184.122345   1697.851389
VL65 -64653.642539  23717.079839 -32773.356026 999999.999999
*  2023  2 18 15 43 30.00000000
PL65  -2945.197384   1124.725302   6082.375902   1698.320955
VL65 -63499.451006  23595.802759 -35051.355411 999999.999999
*  2023  2 18 15 44  0.00000000
PL65  -3133.877041   1195.291623   5973.852987   1698.790822
VL65 -62275.477859  23443.172657 -37290.582070 999999.999999
*  2023  2 18 15 44 30.00000000
PL65  -3318.781943   1265.352845   5858.673693   1699.260547
VL65 -60983.199594  23259.050710 -39488.526362 999999.999999
*  2023  2 18 15 45  0.00000000
PL65  -3499.709485   1334.814337   5736.965578   1699.730349
VL65 -59624.169837  23043.340268 -41642.722418 999999.999999
*  2023  2 18 15 45 30.00000000
PL65  -3676.461838   1403.581243   5608.863529   1700.200133
VL65 -58200.018549  22795.987745 -43750.749517 999999.999999
*  2023  2 18 15 46  0.00000000
PL65  -3848.846179   1471.558609   5474.509624   1700.670038
VL65 -56712.452312  22516.982476 -45810.235523 999999.999999
*  2023  2 18 15 46 30.00000000
PL65  -4016.674916   1538.651515   5334.052978   1701.140015
VL65 -55163.252353  22206.356344 -47818.862134 999999.999999
*  2023  2 18 15 47  0.00000000
PL65  -4179.765908   1604.765200   5187.649573   1701.610137
VL65 -53554.270141  21864.184330 -49774.369068 999999.999999
*  2023  2 18 15 47 30.00000000
PL65  -4337.942670   1669.805194   5035.462086   1702.080266
VL65 -51887.423233  21490.586041 -51674.555691 999999.999999
*  2023  2 18 15 48  0.00000000
PL65  -4491.034564   1733.677454   4877.659702   1702.550200
VL65 -50164.694121  21085.726549 -53517.281124 999999.999999
*  2023  2 18 15 48 30.00000000
PL65  -4638.876998   1796.288500   4714.417941   1703.020326
VL65 -48388.130341  20649.815947 -55300.466950 999999.999999
*  2023  2 18 15 49  0.00000000
PL65  -4781.311619   1857.545551   4545.918454   1703.490461
VL65 -46559.841561  20183.108495 -57022.101710 999999.999999
*  2023  2 18 15 49 30.00000000
PL65  -4918.186488   1917.356651   4372.348826   1703.960898
VL65 -44681.995854  19685.902266 -58680.243316 999999.999999
*  2023  2 18 15 50  0.00000000
PL65  -5049.356259   1975.630807   4193.902360   1704.431072
VL65 -42756.817042  19158.539592 -60273.021193 999999.999999
*  2023  2 18 15 50 30.00000000
PL65  -5174.682332   2032.278117   4010.777862   1704.900926
VL65 -40786.581662  18601.407284 -61798.638224 999999.999999
*  2023  2 18 15 51  0.00000000
PL65  -5294.033018   2087.209910   3823.179416   1705.370766
VL65 -38773.616630  18014.936424 -63255.372200 999999.999999
*  2023  2 18 15 51 30.00000000
PL65  -5407.283676   2140.338871   3631.316160   1705.840433
VL65 -36720.297363  17399.602062 -64641.577786 999999.999999
*  2023  2 18 15 52  0.00000000
PL65  -5514.316868   2191.579177   3435.402047   1706.310153
VL65 -34629.045583  16755.923079 -65955.689235 999999.999999
*  2023  2 18 15 52 30.00000000
PL65  -5615.022481   2240.846626   3235.655604   1706.780345
VL65 -32502.325850  16084.461848 -67196.223756 999999.999999
*  2023  2 18 15 53  0.00000000
PL65  -5709.297857   2288.058769   3032.299682   1707.250932
VL65 -30342.641080  15385.823319 -68361.783405 999999.999999
*  2023  2 18 15 53 30.00000000
PL65  -5797.047899   2333.135034   2825.561194   1707.721872
VL65 -28152.529478  14660.654231 -69451.055434 999999.999999
*  2023  2 18 15 54  0.00000000
PL65  -5878.185177   2375.996851   2615.670866   1708.192552
VL65 -25934.562844  13909.642898 -70462.813437 999999.999999
*  2023  2 18 15 54 30.00000000
PL65  -5952.630023   2416.567777   2402.862968   1708.663077
VL65 -23691.344226  13133.519038 -71395.920038 999999.999999
*  2023  2 18 15 55  0.00000000
PL65  -6020.310621   2454.773621   2187.375046   1709.133397
VL65 -21425.504090  12333.053024 -72249.329690 999999.999999
*  2023  2 18 15 55 30.00000000
PL65  -6081.163079   2490.542562   1969.447642   1709.603607
VL65 -19139.696074  11509.054697 -73022.090295 999999.999999
*  2023  2 18 15 56  0.00000000
PL65  -6135.131502   2523.805264   1749.324014   1710.073750
VL65 -16836.593112  10662.372366 -73713.344399 999999.999999
*  2023  2 18 15 56 30.00000000
PL65  -6182.168031   2554.494996   1527.249847   1710.543774
VL65 -14518.883402   9793.891740 -74322.330279 999999.999999
EOF
